<?xml version='1.0' encoding='utf-8'?>
<gpx version="1.1" creator="Joker Outdoor" xmlns="http://www.topografix.com/GPX/1/1"><trk><name>演示路线 · 合成数据</name><trkseg><trkpt lat="30.5" lon="104.2"><ele>500.0</ele></trkpt><trkpt lat="30.5003" lon="104.20044158227971"><ele>502.62</ele></trkpt><trkpt lat="30.5006" lon="104.2008826584134"><ele>505.23</ele></trkpt><trkpt lat="30.5009" lon="104.2013227231337"><ele>507.85</ele></trkpt><trkpt lat="30.5012" lon="104.20176127292886"><ele>510.45</ele></trkpt><trkpt lat="30.5015" lon="104.20219780691684"><ele>513.05</ele></trkpt><trkpt lat="30.5018" lon="104.20263182771478"><ele>515.64</ele></trkpt><trkpt lat="30.5021" lon="104.20306284230236"><ele>518.22</ele></trkpt><trkpt lat="30.5024" lon="104.20349036287757"><ele>520.79</ele></trkpt><trkpt lat="30.5027" lon="104.20391390770361"><ele>523.34</ele></trkpt><trkpt lat="30.503" lon="104.20433300194492"><ele>525.88</ele></trkpt><trkpt lat="30.5033" lon="104.20474717849163"><ele>528.4</ele></trkpt><trkpt lat="30.5036" lon="104.20515597877024"><ele>530.9</ele></trkpt><trkpt lat="30.5039" lon="104.20555895353968"><ele>533.38</ele></trkpt><trkpt lat="30.5042" lon="104.2059556636712"><ele>535.84</ele></trkpt><trkpt lat="30.5045" lon="104.20634568091059"><ele>538.27</ele></trkpt><trkpt lat="30.5048" lon="104.20672858862149"><ele>540.67</ele></trkpt><trkpt lat="30.5051" lon="104.20710398250876"><ele>543.05</ele></trkpt><trkpt lat="30.5054" lon="104.20747147132018"><ele>545.4</ele></trkpt><trkpt lat="30.5057" lon="104.20783067752559"><ele>547.72</ele></trkpt><trkpt lat="30.506" lon="104.20818123797237"><ele>550.0</ele></trkpt><trkpt lat="30.5063" lon="104.20852280451567"><ele>552.25</ele></trkpt><trkpt lat="30.5066" lon="104.20885504462274"><ele>554.46</ele></trkpt><trkpt lat="30.5069" lon="104.20917764195035"><ele>556.64</ele></trkpt><trkpt lat="30.5072" lon="104.20949029689366"><ele>558.78</ele></trkpt><trkpt lat="30.5075" lon="104.20979272710649"><ele>560.88</ele></trkpt><trkpt lat="30.5078" lon="104.21008466799134"><ele>562.93</ele></trkpt><trkpt lat="30.5081" lon="104.21036587315871"><ele>564.94</ele></trkpt><trkpt lat="30.5084" lon="104.21063611485478"><ele>566.91</ele></trkpt><trkpt lat="30.5087" lon="104.21089518435684"><ele>568.84</ele></trkpt><trkpt lat="30.509" lon="104.21114289233549"><ele>570.71</ele></trkpt><trkpt lat="30.5093" lon="104.21137906918337"><ele>572.54</ele></trkpt><trkpt lat="30.5096" lon="104.21160356530955"><ele>574.31</ele></trkpt><trkpt lat="30.5099" lon="104.21181625139916"><ele>576.04</ele></trkpt><trkpt lat="30.5102" lon="104.21201701863795"><ele>577.71</ele></trkpt><trkpt lat="30.5105" lon="104.21220577890111"><ele>579.34</ele></trkpt><trkpt lat="30.5108" lon="104.21238246490623"><ele>580.9</ele></trkpt><trkpt lat="30.5111" lon="104.21254703033016"><ele>582.41</ele></trkpt><trkpt lat="30.5114" lon="104.21269944988934"><ele>583.87</ele></trkpt><trkpt lat="30.5117" lon="104.21283971938378"><ele>585.26</ele></trkpt><trkpt lat="30.512" lon="104.21296785570426"><ele>586.6</ele></trkpt><trkpt lat="30.5123" lon="104.21308389680308"><ele>587.88</ele></trkpt><trkpt lat="30.5126" lon="104.21318790162812"><ele>589.1</ele></trkpt><trkpt lat="30.5129" lon="104.21327995002058"><ele>590.26</ele></trkpt><trkpt lat="30.5132" lon="104.2133601425763"><ele>591.35</ele></trkpt><trkpt lat="30.5135" lon="104.21342860047126"><ele>592.39</ele></trkpt><trkpt lat="30.5138" lon="104.21348546525114"><ele>593.36</ele></trkpt><trkpt lat="30.5141" lon="104.21353089858562"><ele>594.26</ele></trkpt><trkpt lat="30.5144" lon="104.21356508198778"><ele>595.11</ele></trkpt><trkpt lat="30.5147" lon="104.21358821649903"><ele>595.88</ele></trkpt><trkpt lat="30.515" lon="104.21360052234009"><ele>596.59</ele></trkpt><trkpt lat="30.5153" lon="104.21360223852874"><ele>597.24</ele></trkpt><trkpt lat="30.5156" lon="104.21359362246488"><ele>597.81</ele></trkpt><trkpt lat="30.5159" lon="104.21357494948381"><ele>598.33</ele></trkpt><trkpt lat="30.5162" lon="104.21354651237822"><ele>598.77</ele></trkpt><trkpt lat="30.5165" lon="104.2135086208899"><ele>599.14</ele></trkpt><trkpt lat="30.5168" lon="104.21346160117217"><ele>599.45</ele></trkpt><trkpt lat="30.5171" lon="104.21340579522368"><ele>599.69</ele></trkpt><trkpt lat="30.5174" lon="104.21334156029472"><ele>599.86</ele></trkpt><trkpt lat="30.5177" lon="104.21326926826713"><ele>599.97</ele></trkpt><trkpt lat="30.518" lon="104.21318930500873"><ele>600.0</ele></trkpt><trkpt lat="30.5183" lon="104.21310206970355"><ele>599.97</ele></trkpt><trkpt lat="30.5186" lon="104.21300797415883"><ele>599.86</ele></trkpt><trkpt lat="30.5189" lon="104.21290744209027"><ele>599.69</ele></trkpt><trkpt lat="30.5192" lon="104.21280090838646"><ele>599.45</ele></trkpt><trkpt lat="30.5195" lon="104.21268881835395"><ele>599.14</ele></trkpt><trkpt lat="30.5198" lon="104.21257162694437"><ele>598.77</ele></trkpt><trkpt lat="30.5201" lon="104.21244979796457"><ele>598.33</ele></trkpt><trkpt lat="30.5204" lon="104.21232380327157"><ele>597.81</ele></trkpt><trkpt lat="30.5207" lon="104.21219412195354"><ele>597.24</ele></trkpt><trkpt lat="30.521" lon="104.21206123949807"><ele>596.59</ele></trkpt><trkpt lat="30.5213" lon="104.21192564694947"><ele>595.88</ele></trkpt><trkpt lat="30.5216" lon="104.21178784005643"><ele>595.11</ele></trkpt><trkpt lat="30.5219" lon="104.21164831841138"><ele>594.26</ele></trkpt><trkpt lat="30.5222" lon="104.21150758458337"><ele>593.36</ele></trkpt><trkpt lat="30.5225" lon="104.21136614324561"><ele>592.39</ele></trkpt><trkpt lat="30.5228" lon="104.21122450029944"><ele>591.35</ele></trkpt><trkpt lat="30.5231" lon="104.21108316199617"><ele>590.26</ele></trkpt><trkpt lat="30.5234" lon="104.2109426340583"><ele>589.1</ele></trkpt><trkpt lat="30.5237" lon="104.21080342080162"><ele>587.88</ele></trkpt><trkpt lat="30.524" lon="104.21066602425988"><ele>586.6</ele></trkpt><trkpt lat="30.5243" lon="104.21053094331319"><ele>585.26</ele></trkpt><trkpt lat="30.5246" lon="104.21039867282217"><ele>583.87</ele></trkpt><trkpt lat="30.5249" lon="104.21026970276885"><ele>582.41</ele></trkpt><trkpt lat="30.5252" lon="104.21014451740618"><ele>580.9</ele></trkpt><trkpt lat="30.5255" lon="104.2100235944174"><ele>579.34</ele></trkpt><trkpt lat="30.5258" lon="104.20990740408689"><ele>577.71</ele></trkpt><trkpt lat="30.5261" lon="104.20979640848378"><ele>576.04</ele></trkpt><trkpt lat="30.5264" lon="104.20969106065988"><ele>574.31</ele></trkpt><trkpt lat="30.5267" lon="104.20959180386326"><ele>572.54</ele></trkpt><trkpt lat="30.527" lon="104.2094990707688"><ele>570.71</ele></trkpt><trkpt lat="30.5273" lon="104.20941328272717"><ele>568.84</ele></trkpt><trkpt lat="30.5276" lon="104.20933484903338"><ele>566.91</ele></trkpt><trkpt lat="30.5279" lon="104.20926416621633"><ele>564.94</ele></trkpt><trkpt lat="30.5282" lon="104.2092016173505"><ele>562.93</ele></trkpt><trkpt lat="30.5285" lon="104.20914757139094"><ele>560.88</ele></trkpt><trkpt lat="30.5288" lon="104.20910238253285"><ele>558.78</ele></trkpt><trkpt lat="30.5291" lon="104.20906638959677"><ele>556.64</ele></trkpt><trkpt lat="30.5294" lon="104.20903991544039"><ele>554.46</ele></trkpt><trkpt lat="30.5297" lon="104.20902326639809"><ele>552.25</ele></trkpt><trkpt lat="30.53" lon="104.20901673174933"><ele>550.0</ele></trkpt><trkpt lat="30.5303" lon="104.20902058321632"><ele>547.72</ele></trkpt><trkpt lat="30.5306" lon="104.2090350744924"><ele>545.4</ele></trkpt><trkpt lat="30.5309" lon="104.20906044080179"><ele>543.05</ele></trkpt><trkpt lat="30.5312" lon="104.20909689849111"><ele>540.67</ele></trkpt><trkpt lat="30.5315" lon="104.20914464465389"><ele>538.27</ele></trkpt><trkpt lat="30.5318" lon="104.2092038567885"><ele>535.84</ele></trkpt><trkpt lat="30.5321" lon="104.20927469248994"><ele>533.38</ele></trkpt><trkpt lat="30.5324" lon="104.20935728917634"><ele>530.9</ele></trkpt><trkpt lat="30.5327" lon="104.20945176385044"><ele>528.4</ele></trkpt><trkpt lat="30.533" lon="104.2095582128964"><ele>525.88</ele></trkpt><trkpt lat="30.5333" lon="104.20967671191259"><ele>523.34</ele></trkpt><trkpt lat="30.5336" lon="104.20980731558032"><ele>520.79</ele></trkpt><trkpt lat="30.5339" lon="104.20995005756888"><ele>518.22</ele></trkpt><trkpt lat="30.5342" lon="104.21010495047717"><ele>515.64</ele></trkpt><trkpt lat="30.5345" lon="104.2102719858118"><ele>513.05</ele></trkpt><trkpt lat="30.5348" lon="104.2104511340018"><ele>510.45</ele></trkpt><trkpt lat="30.5351" lon="104.21064234445001"><ele>507.85</ele></trkpt><trkpt lat="30.5354" lon="104.21084554562084"><ele>505.23</ele></trkpt><trkpt lat="30.5357" lon="104.21106064516451"><ele>502.62</ele></trkpt><trkpt lat="30.536" lon="104.21128753007736"><ele>500.0</ele></trkpt></trkseg></trk></gpx>